INTELSAT 22 (IS-22)     
1 38098U 12011A   26169.90912545 -.00000065  00000+0  00000+0 0  9992
2 38098   0.0142  38.5274 0001541  52.9148 215.0872  1.00272407  7203
APSTAR-7                
1 38107U 12013A   26169.98129465 -.00000108  00000+0  00000+0 0  9992
2 38107   0.0263  71.2136 0002586  25.6266 240.1322  1.00271524 51822
YAHSAT 1B               
1 38245U 12016A   26169.54782666  .00000120  00000+0  00000+0 0  9991
2 38245   0.0917  90.3819 0002308  19.4635  41.7490  1.00275734 45623
AEHF-2 (USA 235)        
1 38254U 12019A   26169.89167934 -.00000144  00000+0  00000+0 0  9994
2 38254   6.6543  57.4770 0002271  25.0402 129.0450  1.00271619  7008
JCSAT-13                
1 38331U 12023A   26169.91943883 -.00000363  00000+0  00000+0 0  9996
2 38331   0.0215  57.5787 0003109  54.4914 250.0707  1.00270223 51551
VINASAT-2               
1 38332U 12023B   26169.92099884 -.00000335  00000+0  00000+0 0  9990
2 38332   0.0138 350.6712 0002200 106.0526 273.8310  1.00269762 46671
NIMIQ 6                 
1 38342U 12026A   26169.87688292 -.00000180  00000+0  00000+0 0  9993
2 38342   0.0099 330.7833 0002546 113.1543  47.7365  1.00273012 50432
ZHONGXING-2A            
1 38352U 12028A   26169.91432547 -.00000299  00000+0  00000+0 0  9992
2 38352   1.4594  83.8471 0003836  47.1290 203.5558  1.00269343 51316
INTELSAT 19 (IS-19)     
1 38356U 12030A   26169.85642950 -.00000063  00000+0  00000+0 0  9992
2 38356   0.0186   6.0843 0002934  89.7952 285.5162  1.00271441 50465
ECHOSTAR 17             
1 38551U 12035A   26169.87358957 -.00000082  00000+0  00000+0 0  9998
2 38551   0.0175  15.8816 0002128  71.3595  27.2539  1.00271061 51089
METEOSAT-10 (MSG-3)     
1 38552U 12035B   26169.89497269 -.00000014  00000+0  00000+0 0  9996
2 38552   4.6766  61.0163 0001427   0.8566 167.7502  1.00266219 50875
SES-5                   
1 38652U 12036A   26169.53933329  .00000027  00000+0  00000+0 0  9994
2 38652   0.0452 317.9851 0001720 125.6785  22.2406  1.00269306 44477
INTELSAT 20 (IS-20)     
1 38740U 12043A   26169.83710270 -.00000031  00000+0  00000+0 0  9997
2 38740   0.0029  47.2647 0001439 132.1671  97.5047  1.00271173 50765
HYLAS 2                 
1 38741U 12043B   26169.88052294 -.00000265  00000+0  00000+0 0  9997
2 38741   2.4326  81.0492 0002354  27.0985  43.3742  1.00272493 50793
INTELSAT 21 (IS-21)     
1 38749U 12045A   26169.88338295 -.00000291  00000+0  00000+0 0  9994
2 38749   0.0181   6.9619 0001387  90.8469  69.3201  1.00272539 50543
ASTRA 2F                
1 38778U 12051A   26169.90043271  .00000143  00000+0  00000+0 0  9998
2 38778   0.0582 255.5564 0001578 281.4694  82.4297  1.00270882 41158
GSAT-10                 
1 38779U 12051B   26169.91129213 -.00000171  00000+0  00000+0 0  9993
2 38779   0.0757 261.8446 0007763 186.2957 230.0771  1.00272150 50112
INTELSAT 23 (IS-23)     
1 38867U 12057A   26169.88442295 -.00000291  00000+0  00000+0 0  9994
2 38867   0.0104 321.9376 0000155  69.5371 141.0158  1.00267436 49970
BEIDOU-2 G6             
1 38953U 12059A   26169.84022277 -.00000183  00000+0  00000+0 0  9992
2 38953   4.4263  73.5051 0009615 324.4090 255.6782  1.00271655 49929
LUCH-5B                 
1 38977U 12061A   26169.89176601 -.00000148  00000+0  00000+0 0  9998
2 38977  10.4892  49.8655 0002465 150.1855  11.8366  1.00272094 49620
YAMAL 300K              
1 38978U 12061B   26170.14497398  .00000065  00000+0  00000+0 0  9995
2 38978   0.0166 300.7137 0001098 314.8229 246.9878  1.00271552 49659
STAR ONE C3             
1 38991U 12062A   26169.88000293 -.00000255  00000+0  00000+0 0  9996
2 38991   0.0030  39.4191 0002343  61.8904  47.6117  1.00270606 49788
EUTELSAT 21B            
1 38992U 12062B   26169.89913270  .00000123  00000+0  00000+0 0  9999
2 38992   0.0655 348.1383 0003092  88.8610 175.4503  1.00268926 49848
ECHOSTAR 16             
1 39008U 12065A   26169.81140400 -.00000288  00000+0  00000+0 0  9993
2 39008   0.0174  23.1620 0002143  64.8226  49.6629  1.00271066 49660
ZHONGXING-12            
1 39017U 12067A   26169.98346133 -.00000213  00000+0  00000+0 0  9992
2 39017   0.0433  90.0470 0002743 348.7478 269.9596  1.00271338 49520
EUTELSAT 70B            
1 39020U 12069A   26169.90886545 -.00000050  00000+0  00000+0 0  9995
2 39020   0.0664  19.1001 0003900  60.8787 224.8416  1.00271783 49528
YAMAL 402               
1 39022U 12070A   26169.97704797  .00000079  00000+0  00000+0 0  9994
2 39022   1.2707  84.1377 0003727   3.5155 226.1867  1.00272149 49419
SKYNET 5D               
1 39034U 12075A   26169.90531211  .00000093  00000+0  00000+0 0  9990
2 39034   0.0658 354.5288 0003566 101.2426 190.0428  1.00271159 49172
MEXSAT 3                
1 39035U 12075B   26169.87202957  .00000000  00000+0  00000+0 0  9997
2 39035   0.0181  17.9909 0001041  43.0165  45.2443  1.00273726  7076
TDRS 11                 
1 39070U 13004A   26169.86032953  .00000071  00000+0  00000+0 0  9993
2 39070   3.5230  31.2853 0005384  21.1862 349.9141  1.00270080 46713
AMAZONAS 3              
1 39078U 13006A   26169.88277627 -.00000289  00000+0  00000+0 0  9996
2 39078   0.0394 199.8638 0001992 291.7209  32.3356  1.00271864 44931
AZERSPACE 1             
1 39079U 13006B   26169.88510749  .00000127  00000+0  00000+0 0  9992
2 39079   0.0172  53.9103 0001354  63.6105 154.2075  1.00270950 48825
SBIRS GEO-2 (USA 241)   
1 39120U 13011A   26169.52858656 -.00000294  00000+0  00000+0 0  9994
2 39120   4.4921  52.5106 0002124  28.0198 326.7276  1.00271683 48545
EUTELSAT 117 WEST A     
1 39122U 13012A   26169.65784435 -.00000019  00000+0  00000+0 0  9999
2 39122   0.0186  28.5171 0002717  58.6529 299.7384  1.00271608 48447
ANIK G1                 
1 39127U 13014A   26169.87367624 -.00000080  00000+0  00000+0 0  9995
2 39127   0.0428 271.5222 0001554 169.4812  33.3047  1.00271428 48271
ZHONGXING-11            
1 39157U 13020A   26169.74408064 -.00000296  00000+0  00000+0 0  9994
2 39157   0.0369 293.7123 0002119 142.2172 196.7857  1.00266804 47915
EUTELSAT 7B             
1 39163U 13022A   26169.89627269  .00000041  00000+0  00000+0 0  9996
2 39163   0.0640 354.9962 0004463  40.2303 201.5611  1.00269786 47962
WGS F5 (USA 243)        
1 39168U 13024A   26169.81322402  .00000000  00000+0  00000+0 0  9991
2 39168   0.0188   4.4404 0000336 328.5832 174.2786  1.00267894 47198
SES-6                   
1 39172U 13026A   26169.88687435 -.00000268  00000+0  00000+0 0  9992
2 39172   0.0207 329.4839 0002621 142.3890  74.0079  1.00270826 47744
IRNSS-1A                
1 39199U 13034A   26169.89544831  .00000051  00000+0  00000+0 0  9992
2 39199  35.7241  63.8469 0017589 183.2529  37.3106  1.00275723 47380
MUOS-2                  
1 39206U 13036A   26169.85772951 -.00000021  00000+0  00000+0 0  9993
2 39206   4.9982  45.5319 0051149 177.4214 164.8904  1.00273468 47203
ALPHASAT                
1 39215U 13038A   26169.89982603  .00000126  00000+0  00000+0 0  9991
2 39215   2.9986   1.3607 0001716  87.9748 166.5887  1.00271446 44038
INSAT-3D                
1 39216U 13038B   26169.92056550 -.00000346  00000+0  00000+0 0  9994
2 39216   1.9315  82.5182 0000593 320.8971 324.6311  1.00268467 47099
WGS F6 (USA 244)        
1 39222U 13041A   26169.65420434  .00000083  00000+0  00000+0 0  9998
2 39222   0.0180  10.1639 0000135 338.2177  18.8213  1.00271791 46077
ES'HAIL 1               
1 39233U 13044A   26169.89991270  .00000137  00000+0  00000+0 0  9990
2 39233   0.0467 352.5551 0001893  87.1403 176.8827  1.00269236 46647
GSAT-7                  
1 39234U 13044B   26169.90955878 -.00000083  00000+0  00000+0 0  9998
2 39234   0.0884  93.2355 0003051 190.9030  24.4027  1.00270666 45276
AMOS-4                  
1 39237U 13045A   26169.87404181  .00000001  00000+0  00000+0 0  9993
2 39237   0.0145 290.8157 0002607 130.5243 225.4313  1.00272017 46977
AEHF-3 (USA 246)        
1 39256U 13050A   26169.49558742  .00000021  00000+0  00000+0 0  9993
2 39256   5.2965  67.1725 0087809 188.0237  65.6729  1.00272922 45664
ASTRA 2E                
1 39285U 13056A   26169.90051937  .00000144  00000+0  00000+0 0  9997
2 39285   0.0741 315.6915 0002779 144.1532 159.9838  1.00273842 46433
FM-6                    
1 39360U 13058A   26169.51541316  .00000000  00000+0  00000+0 0  9996
2 39360   0.0333  48.8344 0003221 148.7006 138.4746  1.00287718 46082
RADUGA-1M 3             
1 39375U 13062A   26169.79836442  .00000144  00000+0  00000+0 0  9993
2 39375   5.9627  72.3351 0001803 267.8367 249.2637  1.00273348 46124
SES-8                   
1 39460U 13071A   26169.90025211 -.00000276  00000+0  00000+0 0  9992
2 39460   0.0216 290.9257 0002669 156.5125 238.7810  1.00272214 44449
INMARSAT 5-F1           
1 39476U 13073A   26169.85138992  .00000021  00000+0  00000+0 0  9993
2 39476   0.0166  23.9281 0000692 301.4101 310.8696  1.00271760 45596
TKSAT-1 (TUPAC KATARI)  
1 39481U 13075A   26169.87766293 -.00000200  00000+0  00000+0 0  9994
2 39481   0.0515 194.0526 0002556 236.7517  65.0356  1.00268169 45629
EXPRESS-AM5             
1 39487U 13077A   26169.99394804 -.00000286  00000+0  00000+0 0  9994
2 39487   0.0153 291.7230 0000088 350.6854 122.6636  1.00274454 46376
GSAT-14                 
1 39498U 14001A   26169.90955878 -.00000083  00000+0  00000+0 0  9994
2 39498   0.0413  95.6695 0000873 174.9702  37.9244  1.00271162 45391
THAICOM 6               
1 39500U 14002A   26169.91042545 -.00000127  00000+0  00000+0 0  9997
2 39500   0.0707 108.2392 0004350   2.5217 202.6337  1.00272232 45479
TDRS 12                 
1 39504U 14004A   26169.88678769 -.00000278  00000+0  00000+0 0  9999
2 39504   3.9794  19.1355 0003101 196.5436 329.6515  1.00266239 44297
ABS-2                   
1 39508U 14006A   26169.87502094 -.00000092  00000+0  00000+0 0  9995
2 39508   0.0110 308.8957 0003752 124.3500 223.7805  1.00270734 45292
